{
  "norad_id": 58771,
  "name": "STARLINK-31135",
  "history": [
    {
      "epoch": "2026-04-14T13:42:17.337600Z",
      "apogee_km": 475.98309918618725,
      "perigee_km": 474.5367582983454,
      "latitude_deg": -4.116153953458484e-05,
      "longitude_deg": 156.601079742621,
      "height_km": 476.12704104610646,
      "semi_major_axis_km": 6853.396928742266,
      "eccentricity": 0.00010552,
      "inclination_deg": 53.1601,
      "raan_deg": 204.9189,
      "arg_perigee_deg": 87.522,
      "mean_anomaly_deg": 272.5901,
      "mean_motion_rev_day": 15.30184976
    },
    {
      "epoch": "2026-04-15T16:21:11.391840Z",
      "apogee_km": 475.9812903154734,
      "perigee_km": 474.4804027570817,
      "latitude_deg": 5.258758184390906e-05,
      "longitude_deg": 110.6238168199769,
      "height_km": 476.0431143670672,
      "semi_major_axis_km": 6853.367846536277,
      "eccentricity": 0.0001095,
      "inclination_deg": 53.1601,
      "raan_deg": 199.7612,
      "arg_perigee_deg": 83.4151,
      "mean_anomaly_deg": 276.6975,
      "mean_motion_rev_day": 15.30194716
    },
    {
      "epoch": "2026-04-16T17:26:02.223168Z",
      "apogee_km": 476.06966582316454,
      "perigee_km": 474.435817708727,
      "latitude_deg": -1.6574383500969365e-05,
      "longitude_deg": 88.52663880316017,
      "height_km": 476.1187285365453,
      "semi_major_axis_km": 6853.3897417659455,
      "eccentricity": 0.0001192,
      "inclination_deg": 53.161,
      "raan_deg": 194.9059,
      "arg_perigee_deg": 87.7339,
      "mean_anomaly_deg": 272.3798,
      "mean_motion_rev_day": 15.30187383
    },
    {
      "epoch": "2026-04-17T15:22:47.355168Z",
      "apogee_km": 476.00143946569915,
      "perigee_km": 474.4880757059891,
      "latitude_deg": 1.6308300761825544e-05,
      "longitude_deg": 114.19032970498645,
      "height_km": 476.08033012306,
      "semi_major_axis_km": 6853.381757585844,
      "eccentricity": 0.00011041,
      "inclination_deg": 53.1611,
      "raan_deg": 190.6589,
      "arg_perigee_deg": 85.2358,
      "mean_anomaly_deg": 274.8769,
      "mean_motion_rev_day": 15.30190057
    },
    {
      "epoch": "2026-04-18T11:45:28.007136Z",
      "apogee_km": 475.9332526353073,
      "perigee_km": 474.5325608937628,
      "latitude_deg": 1.808404679687864e-05,
      "longitude_deg": 163.7413552065054,
      "height_km": 476.00207528398556,
      "semi_major_axis_km": 6853.369906764535,
      "eccentricity": 0.00010219,
      "inclination_deg": 53.1602,
      "raan_deg": 186.7162,
      "arg_perigee_deg": 79.3621,
      "mean_anomaly_deg": 280.7495,
      "mean_motion_rev_day": 15.30194026
    },
    {
      "epoch": "2026-04-19T14:24:23.218272Z",
      "apogee_km": 475.95328797231105,
      "perigee_km": 474.5647899348187,
      "latitude_deg": 5.501644583706812e-06,
      "longitude_deg": 117.76267669448464,
      "height_km": 475.8527557844384,
      "semi_major_axis_km": 6853.396038953564,
      "eccentricity": 0.0001013,
      "inclination_deg": 53.161,
      "raan_deg": 181.562,
      "arg_perigee_deg": 63.9439,
      "mean_anomaly_deg": 296.1666,
      "mean_motion_rev_day": 15.30185274
    },
    {
      "epoch": "2026-04-20T10:47:05.179200Z",
      "apogee_km": 475.95163947933816,
      "perigee_km": 474.54642120767585,
      "latitude_deg": 7.93689504903136e-06,
      "longitude_deg": 167.30473184668855,
      "height_km": 475.9604273593387,
      "semi_major_axis_km": 6853.386030343507,
      "eccentricity": 0.00010252,
      "inclination_deg": 53.1594,
      "raan_deg": 177.6158,
      "arg_perigee_deg": 74.5653,
      "mean_anomaly_deg": 285.5461,
      "mean_motion_rev_day": 15.30188626
    },
    {
      "epoch": "2026-04-21T10:17:52.137024Z",
      "apogee_km": 476.0863554042544,
      "perigee_km": 474.4027536915646,
      "latitude_deg": 1.0038928248787796e-05,
      "longitude_deg": 169.09152707375495,
      "height_km": 476.0667666442083,
      "semi_major_axis_km": 6853.381554547909,
      "eccentricity": 0.00012283,
      "inclination_deg": 53.16,
      "raan_deg": 173.0639,
      "arg_perigee_deg": 84.8254,
      "mean_anomaly_deg": 275.2887,
      "mean_motion_rev_day": 15.30190125
    },
    {
      "epoch": "2026-04-22T11:22:44.023296Z",
      "apogee_km": 476.1086823527994,
      "perigee_km": 474.3857415619141,
      "latitude_deg": 1.9982751028776874e-05,
      "longitude_deg": 146.99099570052803,
      "height_km": 476.14001410513976,
      "semi_major_axis_km": 6853.3842119573565,
      "eccentricity": 0.0001257,
      "inclination_deg": 53.1599,
      "raan_deg": 168.2096,
      "arg_perigee_deg": 89.6493,
      "mean_anomaly_deg": 270.4652,
      "mean_motion_rev_day": 15.30189235
    },
    {
      "epoch": "2026-04-23T09:19:28.648128Z",
      "apogee_km": 476.0759621807247,
      "perigee_km": 474.39674864118206,
      "latitude_deg": 8.928619219068087e-06,
      "longitude_deg": 172.6560696273048,
      "height_km": 476.1817277262396,
      "semi_major_axis_km": 6853.373355410953,
      "eccentricity": 0.00012251,
      "inclination_deg": 53.1597,
      "raan_deg": 163.9619,
      "arg_perigee_deg": 93.2275,
      "mean_anomaly_deg": 266.8866,
      "mean_motion_rev_day": 15.30192871
    },
    {
      "epoch": "2026-04-24T11:58:22.826784Z",
      "apogee_km": 476.01704116998644,
      "perigee_km": 474.46680685737374,
      "latitude_deg": 3.0176428810072273e-05,
      "longitude_deg": 126.67832932182023,
      "height_km": 476.22117272475543,
      "semi_major_axis_km": 6853.378924013679,
      "eccentricity": 0.0001131,
      "inclination_deg": 53.1596,
      "raan_deg": 158.8043,
      "arg_perigee_deg": 96.0005,
      "mean_anomaly_deg": 264.1125,
      "mean_motion_rev_day": 15.30191006
    },
    {
      "epoch": "2026-04-25T19:19:26.736384Z",
      "apogee_km": 475.8111681247965,
      "perigee_km": 474.6693954696484,
      "latitude_deg": 2.346283439164659e-06,
      "longitude_deg": 9.057474737347261,
      "height_km": 476.10372373949264,
      "semi_major_axis_km": 6853.377281797222,
      "eccentricity": 8.33e-05,
      "inclination_deg": 53.1592,
      "raan_deg": 152.7373,
      "arg_perigee_deg": 86.4718,
      "mean_anomaly_deg": 273.6378,
      "mean_motion_rev_day": 15.30191556
    },
    {
      "epoch": "2026-04-26T18:50:14.559936Z",
      "apogee_km": 475.9898195613532,
      "perigee_km": 474.4702910178539,
      "latitude_deg": 3.5122063944065167e-06,
      "longitude_deg": 10.840954956751146,
      "height_km": 476.04491446055346,
      "semi_major_axis_km": 6853.367055289604,
      "eccentricity": 0.00011086,
      "inclination_deg": 53.1593,
      "raan_deg": 148.1857,
      "arg_perigee_deg": 83.7003,
      "mean_anomaly_deg": 276.4124,
      "mean_motion_rev_day": 15.30194981
    },
    {
      "epoch": "2026-04-27T18:21:02.438784Z",
      "apogee_km": 475.96717899638224,
      "perigee_km": 474.4895934191154,
      "latitude_deg": -1.7267786672163513e-05,
      "longitude_deg": 12.626288117707222,
      "height_km": 476.11159151690725,
      "semi_major_axis_km": 6853.365386207748,
      "eccentricity": 0.0001078,
      "inclination_deg": 53.1597,
      "raan_deg": 143.6362,
      "arg_perigee_deg": 88.8289,
      "mean_anomaly_deg": 271.2835,
      "mean_motion_rev_day": 15.3019554
    },
    {
      "epoch": "2026-04-28T08:27:31.286880Z",
      "apogee_km": 475.9509846207111,
      "perigee_km": 474.51725938198797,
      "latitude_deg": 6.42820361175156e-05,
      "longitude_deg": 157.69585339902173,
      "height_km": 476.0770112791984,
      "semi_major_axis_km": 6853.371122001349,
      "eccentricity": 0.0001046,
      "inclination_deg": 53.1596,
      "raan_deg": 140.9053,
      "arg_perigee_deg": 85.5645,
      "mean_anomaly_deg": 274.5476,
      "mean_motion_rev_day": 15.30193619
    },
    {
      "epoch": "2026-04-29T11:06:25.496640Z",
      "apogee_km": 475.99943912040635,
      "perigee_km": 474.43399606423463,
      "latitude_deg": 1.0396809417942017e-05,
      "longitude_deg": 111.71672927376315,
      "height_km": 476.03425529918644,
      "semi_major_axis_km": 6853.35371759232,
      "eccentricity": 0.00011421,
      "inclination_deg": 53.1595,
      "raan_deg": 135.7465,
      "arg_perigee_deg": 84.0847,
      "mean_anomaly_deg": 276.0284,
      "mean_motion_rev_day": 15.30199448
    },
    {
      "epoch": "2026-04-30T07:29:07.208736Z",
      "apogee_km": 475.9217069039232,
      "perigee_km": 474.5530880367487,
      "latitude_deg": -3.55056825846685e-05,
      "longitude_deg": 161.26198953736193,
      "height_km": 475.8752875085244,
      "semi_major_axis_km": 6853.374397470336,
      "eccentricity": 9.985e-05,
      "inclination_deg": 53.1595,
      "raan_deg": 131.8025,
      "arg_perigee_deg": 67.6149,
      "mean_anomaly_deg": 292.4957,
      "mean_motion_rev_day": 15.30192522
    },
    {
      "epoch": "2026-05-02T06:30:43.174656Z",
      "apogee_km": 476.08743835899077,
      "perigee_km": 474.4001360091861,
      "latitude_deg": -5.365954050157957e-05,
      "longitude_deg": 164.82909955704633,
      "height_km": 476.0373602233411,
      "semi_major_axis_km": 6853.380787184088,
      "eccentricity": 0.0001231,
      "inclination_deg": 53.1603,
      "raan_deg": 122.7008,
      "arg_perigee_deg": 82.8774,
      "mean_anomaly_deg": 277.2366,
      "mean_motion_rev_day": 15.30190382
    },
    {
      "epoch": "2026-05-03T09:09:37.152000Z",
      "apogee_km": 476.13030346504,
      "perigee_km": 474.3451364179891,
      "latitude_deg": 1.105573480582737e-05,
      "longitude_deg": 118.8537314946046,
      "height_km": 476.1033161785778,
      "semi_major_axis_km": 6853.374719941514,
      "eccentricity": 0.00013024,
      "inclination_deg": 53.1607,
      "raan_deg": 117.5447,
      "arg_perigee_deg": 87.9129,
      "mean_anomaly_deg": 272.2021,
      "mean_motion_rev_day": 15.30192414
    }
  ]
}